start=new Date('2023-04-04T00:00:00.000Z').valueOf();
sats=[{"EPOCH":"2023-04-03T21:44:16.806912","MEAN_MOTION_DOT":"0.00002286","GP_ID":"229424121","ARG_OF_PERICENTER":"76.4602","FILE":"3879321","RCS_SIZE":"LARGE","NORAD_CAT_ID":"53262","OBJECT_NAME":"STARLINK-4085","TLE_LINE1":"1 53262U 22086W   23093.90575008  .00002286  00000-0  16165-3 0  9997","MEAN_ANOMALY":"283.6533","LAUNCH_DATE":"2022-07-24","OBJECT_ID":"2022-086W","RA_OF_ASC_NODE":"321.0617","MEAN_ELEMENT_THEORY":"SGP4","DECAY_DATE":null,"APOAPSIS":"540.610","MEAN_MOTION":"15.08846924","EPHEMERIS_TYPE":"0","PERIOD":"95.437","CLASSIFICATION_TYPE":"U","ECCENTRICITY":"0.00012810","INCLINATION":"53.2155","REV_AT_EPOCH":"3941","TIME_SYSTEM":"UTC","BSTAR":"0.00016165000000","COUNTRY_CODE":"US","SITE":"AFETR","MEAN_MOTION_DDOT":"0.0000000000000","REF_FRAME":"TEME","ELEMENT_SET_NO":"999","PERIAPSIS":"538.838","CENTER_NAME":"EARTH","SEMIMAJOR_AXIS":"6917.859","TLE_LINE2":"2 53262  53.2155 321.0617 0001281  76.4602 283.6533 15.08846924 39412","OBJECT_TYPE":"PAYLOAD"},{"PERIOD":"95.437","CLASSIFICATION_TYPE":"U","MEAN_MOTION":"15.08847598","EPHEMERIS_TYPE":"0","APOAPSIS":"540.621","DECAY_DATE":null,"MEAN_ELEMENT_THEORY":"SGP4","RA_OF_ASC_NODE":"321.1092","OBJECT_ID":"2022-086X","LAUNCH_DATE":"2022-07-24","MEAN_ANOMALY":"287.4491","TLE_LINE1":"1 53263U 22086X   23093.89471175  .00006269  00000-0  41151-3 0  9994","OBJECT_NAME":"STARLINK-4130","NORAD_CAT_ID":"53263","RCS_SIZE":"LARGE","FILE":"3879321","ARG_OF_PERICENTER":"72.6643","GP_ID":"229424872","MEAN_MOTION_DOT":"0.00006269","EPOCH":"2023-04-03T21:28:23.095200","TLE_LINE2":"2 53263  53.2146 321.1092 0001300  72.6643 287.4491 15.08847598 39419","OBJECT_TYPE":"PAYLOAD","SEMIMAJOR_AXIS":"6917.857","CENTER_NAME":"EARTH","PERIAPSIS":"538.823","ELEMENT_SET_NO":"999","REF_FRAME":"TEME","MEAN_MOTION_DDOT":"0.0000000000000","SITE":"AFETR","COUNTRY_CODE":"US","BSTAR":"0.00041151000000","TIME_SYSTEM":"UTC","REV_AT_EPOCH":"3941","INCLINATION":"53.2146","ECCENTRICITY":"0.00013000"},{"OBJECT_TYPE":"PAYLOAD","TLE_LINE2":"2 53264  53.2154 321.0771 0000902  67.5855 292.5232 15.08851239 39414","SEMIMAJOR_AXIS":"6917.846","CENTER_NAME":"EARTH","PERIAPSIS":"539.087","ELEMENT_SET_NO":"999","REF_FRAME":"TEME","MEAN_MOTION_DDOT":"0.0000000000000","SITE":"AFETR","COUNTRY_CODE":"US","BSTAR":"0.00037958000000","TIME_SYSTEM":"UTC","REV_AT_EPOCH":"3941","INCLINATION":"53.2154","ECCENTRICITY":"0.00009020","PERIOD":"95.437","CLASSIFICATION_TYPE":"U","MEAN_MOTION":"15.08851239","EPHEMERIS_TYPE":"0","APOAPSIS":"540.335","DECAY_DATE":null,"MEAN_ELEMENT_THEORY":"SGP4","RA_OF_ASC_NODE":"321.0771","OBJECT_ID":"2022-086Y","LAUNCH_DATE":"2022-07-24","MEAN_ANOMALY":"292.5232","TLE_LINE1":"1 53264U 22086Y   23093.90207028  .00005760  00000-0  37958-3 0  9996","OBJECT_NAME":"STARLINK-3950","NORAD_CAT_ID":"53264","RCS_SIZE":"LARGE","ARG_OF_PERICENTER":"67.5855","FILE":"3879321","GP_ID":"229425123","MEAN_MOTION_DOT":"0.00005760","EPOCH":"2023-04-03T21:38:58.872192"},{"NORAD_CAT_ID":"53265","ARG_OF_PERICENTER":"75.1432","FILE":"3879321","GP_ID":"229425867","MEAN_MOTION_DOT":"0.00006137","EPOCH":"2023-04-03T21:17:47.062464","RCS_SIZE":"LARGE","EPHEMERIS_TYPE":"0","MEAN_MOTION":"15.08854735","APOAPSIS":"541.178","DECAY_DATE":null,"CLASSIFICATION_TYPE":"U","PERIOD":"95.437","LAUNCH_DATE":"2022-07-24","MEAN_ANOMALY":"284.9797","TLE_LINE1":"1 53265U 22086Z   23093.88735026  .00006137  00000-0  40321-3 0  9995","OBJECT_NAME":"STARLINK-4097","MEAN_ELEMENT_THEORY":"SGP4","RA_OF_ASC_NODE":"321.1404","OBJECT_ID":"2022-086Z","BSTAR":"0.00040321000000","TIME_SYSTEM":"UTC","COUNTRY_CODE":"US","ECCENTRICITY":"0.00021360","REV_AT_EPOCH":"3941","INCLINATION":"53.2162","TLE_LINE2":"2 53265  53.2162 321.1404 0002136  75.1432 284.9797 15.08854735 39410","SEMIMAJOR_AXIS":"6917.835","OBJECT_TYPE":"PAYLOAD","CENTER_NAME":"EARTH","REF_FRAME":"TEME","MEAN_MOTION_DDOT":"0.0000000000000","SITE":"AFETR","PERIAPSIS":"538.223","ELEMENT_SET_NO":"999"},{"GP_ID":"229424622","ARG_OF_PERICENTER":"82.3894","FILE":"3879321","EPOCH":"2023-04-03T21:23:05.037792","MEAN_MOTION_DOT":"0.00010027","RCS_SIZE":"LARGE","NORAD_CAT_ID":"53266","MEAN_ANOMALY":"277.7254","LAUNCH_DATE":"2022-07-24","OBJECT_NAME":"STARLINK-4058","TLE_LINE1":"1 53266U 22086AA  23093.89103053  .00010027  00000-0  64690-3 0  9994","MEAN_ELEMENT_THEORY":"SGP4","OBJECT_ID":"2022-086AA","RA_OF_ASC_NODE":"321.1303","APOAPSIS":"540.654","EPHEMERIS_TYPE":"0","MEAN_MOTION":"15.08854634","DECAY_DATE":null,"CLASSIFICATION_TYPE":"U","PERIOD":"95.437","ECCENTRICITY":"0.00013780","REV_AT_EPOCH":"3941","INCLINATION":"53.2150","BSTAR":"0.00064690000000","TIME_SYSTEM":"UTC","COUNTRY_CODE":"US","REF_FRAME":"TEME","SITE":"AFETR","MEAN_MOTION_DDOT":"0.0000000000000","PERIAPSIS":"538.747","ELEMENT_SET_NO":"999","TLE_LINE2":"2 53266  53.2150 321.1303 0001378  82.3894 277.7254 15.08854634 39411","OBJECT_TYPE":"PAYLOAD","SEMIMAJOR_AXIS":"6917.836","CENTER_NAME":"EARTH"},{"GP_ID":"229424372","FILE":"3879321","ARG_OF_PERICENTER":"93.9063","EPOCH":"2023-04-03T21:07:11.243136","MEAN_MOTION_DOT":"0.00000465","RCS_SIZE":"LARGE","NORAD_CAT_ID":"53267","MEAN_ANOMALY":"266.2040","LAUNCH_DATE":"2022-07-24","OBJECT_NAME":"STARLINK-4060","TLE_LINE1":"1 53267U 22086AB  23093.87999124  .00000465  00000-0  47319-4 0  9990","MEAN_ELEMENT_THEORY":"SGP4","OBJECT_ID":"2022-086AB","RA_OF_ASC_NODE":"321.1706","APOAPSIS":"540.419","MEAN_MOTION":"15.08840262","EPHEMERIS_TYPE":"0","DECAY_DATE":null,"CLASSIFICATION_TYPE":"U","PERIOD":"95.438","ECCENTRICITY":"0.00009750","REV_AT_EPOCH":"3941","INCLINATION":"53.2156","BSTAR":"0.00004731900000","TIME_SYSTEM":"UTC","COUNTRY_CODE":"US","REF_FRAME":"TEME","SITE":"AFETR","MEAN_MOTION_DDOT":"0.0000000000000","PERIAPSIS":"539.070","ELEMENT_SET_NO":"999","TLE_LINE2":"2 53267  53.2156 321.1706 0000975  93.9063 266.2040 15.08840262 39411","SEMIMAJOR_AXIS":"6917.880","OBJECT_TYPE":"PAYLOAD","CENTER_NAME":"EARTH"},{"RA_OF_ASC_NODE":"321.1581","OBJECT_ID":"2022-086AC","MEAN_ELEMENT_THEORY":"SGP4","TLE_LINE1":"1 53268U 22086AC  23093.88367025  .00003542  00000-0  24047-3 0  9992","OBJECT_NAME":"STARLINK-4109","LAUNCH_DATE":"2022-07-24","MEAN_ANOMALY":"265.5526","CLASSIFICATION_TYPE":"U","PERIOD":"95.437","DECAY_DATE":null,"MEAN_MOTION":"15.08844933","EPHEMERIS_TYPE":"0","APOAPSIS":"540.414","RCS_SIZE":"LARGE","MEAN_MOTION_DOT":"0.00003542","EPOCH":"2023-04-03T21:12:29.109600","ARG_OF_PERICENTER":"94.5579","FILE":"3879321","GP_ID":"229425623","NORAD_CAT_ID":"53268","ELEMENT_SET_NO":"999","PERIAPSIS":"539.046","MEAN_MOTION_DDOT":"0.0000000000000","SITE":"AFETR","REF_FRAME":"TEME","CENTER_NAME":"EARTH","SEMIMAJOR_AXIS":"6917.865","TLE_LINE2":"2 53268  53.2155 321.1581 0000989  94.5579 265.5526 15.08844933 39416","OBJECT_TYPE":"PAYLOAD","INCLINATION":"53.2155","REV_AT_EPOCH":"3941","ECCENTRICITY":"0.00009890","COUNTRY_CODE":"US","TIME_SYSTEM":"UTC","BSTAR":"0.00024047000000"},{"CLASSIFICATION_TYPE":"U","PERIOD":"95.437","DECAY_DATE":null,"MEAN_MOTION":"15.08849277","EPHEMERIS_TYPE":"0","APOAPSIS":"540.782","RA_OF_ASC_NODE":"311.2031","OBJECT_ID":"2022-086AD","MEAN_ELEMENT_THEORY":"SGP4","TLE_LINE1":"1 53269U 22086AD  23093.87355004  .00004602  00000-0  30698-3 0  9993","OBJECT_NAME":"STARLINK-4057","LAUNCH_DATE":"2022-07-24","MEAN_ANOMALY":"288.2412","NORAD_CAT_ID":"53269","RCS_SIZE":"LARGE","MEAN_MOTION_DOT":"0.00004602","EPOCH":"2023-04-03T20:57:54.723456","FILE":"3879321","ARG_OF_PERICENTER":"71.8748","GP_ID":"229425368","CENTER_NAME":"EARTH","SEMIMAJOR_AXIS":"6917.852","TLE_LINE2":"2 53269  53.2168 311.2031 0001540  71.8748 288.2412 15.08849277 39547","OBJECT_TYPE":"PAYLOAD","ELEMENT_SET_NO":"999","PERIAPSIS":"538.652","MEAN_MOTION_DDOT":"0.0000000000000","SITE":"AFETR","REF_FRAME":"TEME","COUNTRY_CODE":"US","TIME_SYSTEM":"UTC","BSTAR":"0.00030698000000","INCLINATION":"53.2168","REV_AT_EPOCH":"3954","ECCENTRICITY":"0.00015400"},{"NORAD_CAT_ID":"53271","RCS_SIZE":"LARGE","GP_ID":"229424122","FILE":"3879321","ARG_OF_PERICENTER":"69.1927","EPOCH":"2023-04-03T20:47:18.992256","MEAN_MOTION_DOT":"0.00005514","PERIOD":"95.437","CLASSIFICATION_TYPE":"U","APOAPSIS":"540.570","EPHEMERIS_TYPE":"0","MEAN_MOTION":"15.08852439","DECAY_DATE":null,"MEAN_ELEMENT_THEORY":"SGP4","OBJECT_ID":"2022-086AF","RA_OF_ASC_NODE":"311.2345","LAUNCH_DATE":"2022-07-24","MEAN_ANOMALY":"290.9198","OBJECT_NAME":"STARLINK-4069","TLE_LINE1":"1 53271U 22086AF  23093.86619204  .00005514  00000-0  36415-3 0  9996","COUNTRY_CODE":"US","BSTAR":"0.00036415000000","TIME_SYSTEM":"UTC","REV_AT_EPOCH":"3954","INCLINATION":"53.2159","ECCENTRICITY":"0.00012470","SEMIMAJOR_AXIS":"6917.842","TLE_LINE2":"2 53271  53.2159 311.2345 0001247  69.1927 290.9198 15.08852439 39546","OBJECT_TYPE":"PAYLOAD","CENTER_NAME":"EARTH","PERIAPSIS":"538.845","ELEMENT_SET_NO":"999","REF_FRAME":"TEME","SITE":"AFETR","MEAN_MOTION_DDOT":"0.0000000000000"},{"NORAD_CAT_ID":"53272","RCS_SIZE":"LARGE","EPOCH":"2023-04-03T21:03:12.547584","MEAN_MOTION_DOT":"0.00010776","GP_ID":"229424873","ARG_OF_PERICENTER":"52.6140","FILE":"3879321","PERIOD":"95.436","CLASSIFICATION_TYPE":"U","DECAY_DATE":null,"APOAPSIS":"540.294","EPHEMERIS_TYPE":"0","MEAN_MOTION":"15.08860430","OBJECT_ID":"2022-086AG","RA_OF_ASC_NODE":"311.1860","MEAN_ELEMENT_THEORY":"SGP4","OBJECT_NAME":"STARLINK-4122","TLE_LINE1":"1 53272U 22086AG  23093.87722856  .00010776  00000-0  69372-3 0  9990","LAUNCH_DATE":"2022-07-24","MEAN_ANOMALY":"307.4932","COUNTRY_CODE":"US","TIME_SYSTEM":"UTC","BSTAR":"0.00069372000000","INCLINATION":"53.2164","REV_AT_EPOCH":"3954","ECCENTRICITY":"0.00008840","CENTER_NAME":"EARTH","OBJECT_TYPE":"PAYLOAD","TLE_LINE2":"2 53272  53.2164 311.1860 0000884  52.6140 307.4932 15.08860430 39544","SEMIMAJOR_AXIS":"6917.818","ELEMENT_SET_NO":"999","PERIAPSIS":"539.071","SITE":"AFETR","MEAN_MOTION_DDOT":"0.0000000000000","REF_FRAME":"TEME"}];
